*******************************************************************************
Ephemeris / WWW_USER Fri Mar  7 11:07:00 2025 Pasadena, USA      / Horizons    
*******************************************************************************
Target body name: (2018 US2)                      {source: JPL#14}
Center body name: Earth (399)                     {source: DE441}
Center-site name: Mauna Kea
*******************************************************************************
Start time      : A.D. 2018-Dec-06 03:52:00.0000 UT      
Stop  time      : A.D. 2018-Dec-06 16:33:00.0000 UT      
Step-size       : 1 minutes
*******************************************************************************
Target pole/equ : undefined
Target radii    : undefined                                                    
Center geodetic : 204.5278, 19.8260847, 4.21024   {E-lon(deg),Lat(deg),Alt(km)}
Center cylindric: 204.5278, 6006.35451, 2151.0229 {E-lon(deg),Dxy(km),Dz(km)}
Center pole/equ : ITRF93                          {East-longitude positive}
Center radii    : 6378.137, 6378.137, 6356.752 km {Equator_a, b, pole_c}       
Target primary  : Sun
Vis. interferer : MOON (R_eq= 1737.400) km        {source: DE441}
Rel. light bend : Sun                             {source: DE441}
Rel. lght bnd GM: 1.3271E+11 km^3/s^2                                          
Small-body perts: Yes                             {source: SB441-N16}
Atmos refraction: NO (AIRLESS)
RA format       : HMS
Time format     : CAL 
Calendar mode   : Mixed Julian/Gregorian
RTS-only print  : NO       
EOP file        : eop.250306.p250602                                           
EOP coverage    : DATA-BASED 1962-JAN-20 TO 2025-MAR-06. PREDICTS-> 2025-JUN-01
Units conversion: 1 au= 149597870.700 km, c= 299792.458 km/s, 1 day= 86400.0 s 
Table cut-offs 1: Elevation (-90.0deg=NO ),Airmass (>38.000=NO), Daylight (YES)
Table cut-offs 2: Solar elongation (  0.0,180.0=NO ),Local Hour Angle( 0.0=NO )
Table cut-offs 3: RA/DEC angular rate (     0.0=NO )                           
*******************************************************************************
Initial IAU76/J2000 heliocentric ecliptic osculating elements (au, days, deg.):
  EPOCH=  2458424.5 ! 2018-Nov-02.00 (TDB)         Residual RMS= .2503         
   EC= .6580934192644969   QR= 1.019516546973241   TP= 2458405.4003266119      
   OM= 225.9089147719754   W=  151.3321843630243   IN= 7.044798776353047       
  Equivalent ICRF heliocentric cartesian coordinates (au, au/d):
   X= 8.026033061055595E-01  Y= 6.200562709856074E-01  Z= 2.826199844552283E-01
  VX=-1.102263624249032E-02 VY= 1.780430100977025E-02 VZ= 4.937770740848229E-03
Asteroid physical parameters (km, seconds, rotational period in hours):        
   GM= n.a.                RAD= n.a.               ROTPER= n.a.                
   H= 24.88                G= .150                 B-V= n.a.                   
                           ALBEDO= n.a.            STYP= n.a.                  
*******************************************************************************
 Date__(UT)__HR:MN     R.A._________(ICRF)_________DEC
******************************************************
$$SOE
 2018-Dec-06 03:52 C   05 05 14.374116 +07 01 47.85677
 2018-Dec-06 03:53 C   05 05 14.382977 +07 01 47.71003
 2018-Dec-06 03:54 C   05 05 14.391798 +07 01 47.56333
 2018-Dec-06 03:55 C   05 05 14.400579 +07 01 47.41665
 2018-Dec-06 03:56 C   05 05 14.409320 +07 01 47.27001
 2018-Dec-06 03:57 C   05 05 14.418022 +07 01 47.12340
 2018-Dec-06 03:58 C   05 05 14.426683 +07 01 46.97681
 2018-Dec-06 03:59 C   05 05 14.435304 +07 01 46.83026
 2018-Dec-06 04:00 C   05 05 14.443886 +07 01 46.68373
 2018-Dec-06 04:01 C   05 05 14.452427 +07 01 46.53724
 2018-Dec-06 04:02 C   05 05 14.460928 +07 01 46.39077
 2018-Dec-06 04:03 C   05 05 14.469390 +07 01 46.24433
 2018-Dec-06 04:04 C   05 05 14.477811 +07 01 46.09792
 2018-Dec-06 04:05 C   05 05 14.486192 +07 01 45.95154
 2018-Dec-06 04:06 C   05 05 14.494533 +07 01 45.80518
 2018-Dec-06 04:07 Nr  05 05 14.502834 +07 01 45.65885
 2018-Dec-06 04:08 N   05 05 14.511095 +07 01 45.51255
 2018-Dec-06 04:09 N   05 05 14.519315 +07 01 45.36627
 2018-Dec-06 04:10 N   05 05 14.527496 +07 01 45.22002
 2018-Dec-06 04:11 N   05 05 14.535636 +07 01 45.07379
 2018-Dec-06 04:12 N   05 05 14.543736 +07 01 44.92759
 2018-Dec-06 04:13 N   05 05 14.551796 +07 01 44.78142
 2018-Dec-06 04:14 N   05 05 14.559816 +07 01 44.63527
 2018-Dec-06 04:15 N   05 05 14.567795 +07 01 44.48914
 2018-Dec-06 04:16 N   05 05 14.575734 +07 01 44.34304
 2018-Dec-06 04:17 N   05 05 14.583633 +07 01 44.19696
 2018-Dec-06 04:18 N   05 05 14.591492 +07 01 44.05091
 2018-Dec-06 04:19 N   05 05 14.599310 +07 01 43.90488
 2018-Dec-06 04:20 N   05 05 14.607089 +07 01 43.75887
 2018-Dec-06 04:21 N   05 05 14.614827 +07 01 43.61288
 2018-Dec-06 04:22 N   05 05 14.622525 +07 01 43.46692
 2018-Dec-06 04:23 N   05 05 14.630182 +07 01 43.32097
 2018-Dec-06 04:24 N   05 05 14.637799 +07 01 43.17505
 2018-Dec-06 04:25 N   05 05 14.645376 +07 01 43.02915
 2018-Dec-06 04:26 N   05 05 14.652913 +07 01 42.88327
 2018-Dec-06 04:27 N   05 05 14.660409 +07 01 42.73742
 2018-Dec-06 04:28 N   05 05 14.667865 +07 01 42.59158
 2018-Dec-06 04:29 N   05 05 14.675281 +07 01 42.44576
 2018-Dec-06 04:30 N   05 05 14.682657 +07 01 42.29996
 2018-Dec-06 04:31 N   05 05 14.689992 +07 01 42.15418
 2018-Dec-06 04:32 N   05 05 14.697288 +07 01 42.00842
 2018-Dec-06 04:33 N   05 05 14.704542 +07 01 41.86268
 2018-Dec-06 04:34 A   05 05 14.711757 +07 01 41.71696
 2018-Dec-06 04:35 A   05 05 14.718931 +07 01 41.57125
 2018-Dec-06 04:36 A   05 05 14.726066 +07 01 41.42556
 2018-Dec-06 04:37 A   05 05 14.733160 +07 01 41.27989
 2018-Dec-06 04:38 A   05 05 14.740213 +07 01 41.13424
 2018-Dec-06 04:39 A   05 05 14.747227 +07 01 40.98860
 2018-Dec-06 04:40 A   05 05 14.754200 +07 01 40.84298
 2018-Dec-06 04:41 A   05 05 14.761133 +07 01 40.69738
 2018-Dec-06 04:42 A   05 05 14.768026 +07 01 40.55179
 2018-Dec-06 04:43 A   05 05 14.774879 +07 01 40.40622
 2018-Dec-06 04:44 A   05 05 14.781692 +07 01 40.26066
 2018-Dec-06 04:45 A   05 05 14.788464 +07 01 40.11512
 2018-Dec-06 04:46 A   05 05 14.795197 +07 01 39.96959
 2018-Dec-06 04:47 A   05 05 14.801889 +07 01 39.82407
 2018-Dec-06 04:48 A   05 05 14.808541 +07 01 39.67857
 2018-Dec-06 04:49 A   05 05 14.815154 +07 01 39.53309
 2018-Dec-06 04:50 A   05 05 14.821726 +07 01 39.38761
 2018-Dec-06 04:51 A   05 05 14.828258 +07 01 39.24215
 2018-Dec-06 04:52 A   05 05 14.834750 +07 01 39.09670
 2018-Dec-06 04:53 A   05 05 14.841202 +07 01 38.95127
 2018-Dec-06 04:54 A   05 05 14.847614 +07 01 38.80584
 2018-Dec-06 04:55 A   05 05 14.853986 +07 01 38.66043
 2018-Dec-06 04:56 A   05 05 14.860318 +07 01 38.51503
 2018-Dec-06 04:57 A   05 05 14.866611 +07 01 38.36964
 2018-Dec-06 04:58 A   05 05 14.872863 +07 01 38.22426
 2018-Dec-06 04:59 A   05 05 14.879076 +07 01 38.07889
 2018-Dec-06 05:00 A   05 05 14.885248 +07 01 37.93353
 2018-Dec-06 05:01     05 05 14.891381 +07 01 37.78819
 2018-Dec-06 05:02     05 05 14.897474 +07 01 37.64285
 2018-Dec-06 05:03     05 05 14.903528 +07 01 37.49752
 2018-Dec-06 05:04     05 05 14.909541 +07 01 37.35220
 2018-Dec-06 05:05     05 05 14.915515 +07 01 37.20688
 2018-Dec-06 05:06     05 05 14.921449 +07 01 37.06158
 2018-Dec-06 05:07     05 05 14.927344 +07 01 36.91628
 2018-Dec-06 05:08     05 05 14.933199 +07 01 36.77099
 2018-Dec-06 05:09     05 05 14.939015 +07 01 36.62571
 2018-Dec-06 05:10     05 05 14.944790 +07 01 36.48044
 2018-Dec-06 05:11     05 05 14.950527 +07 01 36.33517
 2018-Dec-06 05:12     05 05 14.956224 +07 01 36.18991
 2018-Dec-06 05:13     05 05 14.961881 +07 01 36.04465
 2018-Dec-06 05:14     05 05 14.967499 +07 01 35.89940
 2018-Dec-06 05:15     05 05 14.973078 +07 01 35.75416
 2018-Dec-06 05:16     05 05 14.978617 +07 01 35.60892
 2018-Dec-06 05:17     05 05 14.984117 +07 01 35.46368
 2018-Dec-06 05:18     05 05 14.989578 +07 01 35.31845
 2018-Dec-06 05:19     05 05 14.995000 +07 01 35.17323
 2018-Dec-06 05:20     05 05 15.000382 +07 01 35.02800
 2018-Dec-06 05:21     05 05 15.005725 +07 01 34.88278
 2018-Dec-06 05:22     05 05 15.011030 +07 01 34.73757
 2018-Dec-06 05:23     05 05 15.016295 +07 01 34.59236
 2018-Dec-06 05:24     05 05 15.021521 +07 01 34.44715
 2018-Dec-06 05:25     05 05 15.026708 +07 01 34.30194
 2018-Dec-06 05:26     05 05 15.031856 +07 01 34.15673
 2018-Dec-06 05:27     05 05 15.036966 +07 01 34.01153
 2018-Dec-06 05:28     05 05 15.042036 +07 01 33.86633
 2018-Dec-06 05:29     05 05 15.047068 +07 01 33.72113
 2018-Dec-06 05:30     05 05 15.052061 +07 01 33.57593
 2018-Dec-06 05:31     05 05 15.057015 +07 01 33.43073
 2018-Dec-06 05:32     05 05 15.061931 +07 01 33.28553
 2018-Dec-06 05:33     05 05 15.066808 +07 01 33.14033
 2018-Dec-06 05:34     05 05 15.071646 +07 01 32.99513
 2018-Dec-06 05:35     05 05 15.076446 +07 01 32.84993
 2018-Dec-06 05:36     05 05 15.081208 +07 01 32.70472
 2018-Dec-06 05:37     05 05 15.085931 +07 01 32.55952
 2018-Dec-06 05:38     05 05 15.090616 +07 01 32.41432
 2018-Dec-06 05:39     05 05 15.095263 +07 01 32.26911
 2018-Dec-06 05:40     05 05 15.099871 +07 01 32.12390
 2018-Dec-06 05:41     05 05 15.104441 +07 01 31.97869
 2018-Dec-06 05:42     05 05 15.108973 +07 01 31.83348
 2018-Dec-06 05:43     05 05 15.113467 +07 01 31.68826
 2018-Dec-06 05:44     05 05 15.117923 +07 01 31.54304
 2018-Dec-06 05:45     05 05 15.122342 +07 01 31.39781
 2018-Dec-06 05:46     05 05 15.126722 +07 01 31.25258
 2018-Dec-06 05:47     05 05 15.131064 +07 01 31.10735
 2018-Dec-06 05:48     05 05 15.135369 +07 01 30.96211
 2018-Dec-06 05:49     05 05 15.139636 +07 01 30.81687
 2018-Dec-06 05:50     05 05 15.143865 +07 01 30.67163
 2018-Dec-06 05:51     05 05 15.148057 +07 01 30.52637
 2018-Dec-06 05:52     05 05 15.152211 +07 01 30.38111
 2018-Dec-06 05:53     05 05 15.156328 +07 01 30.23585
 2018-Dec-06 05:54     05 05 15.160407 +07 01 30.09058
